TRANSPORTER-16 OBJECT AE
1 68444U 26067AE  26104.13440891  .00003332  00000+0  16654-3 0  9995
2 68444  97.4517  63.5713 0001839 141.6339 218.5026 15.18140700  2221
