{
  "norad_id": 68444,
  "name": "TRANSPORTER-16 OBJECT AE",
  "history": [
    {
      "epoch": "2026-04-14T03:13:32.929824Z",
      "apogee_km": 512.7271022576851,
      "perigee_km": 510.1931084423377,
      "latitude_deg": 1.6053542160505205e-06,
      "longitude_deg": 172.86889926879468,
      "height_km": 515.5384359149657,
      "semi_major_axis_km": 6889.597105350012,
      "eccentricity": 0.0001839,
      "inclination_deg": 97.4517,
      "raan_deg": 63.5713,
      "arg_perigee_deg": 141.6339,
      "mean_anomaly_deg": 218.5026,
      "mean_motion_rev_day": 15.181407
    }
  ]
}